EARTHCARE               
1 59908U 24101A   24219.35661143  .00019776  00000+0  28743-3 0  9992
2 59908  96.9854 345.9281 0002290 272.9768  87.1225 15.55811050 10782
